{
  "type": "FeatureCollection",
  "features": [
    {
      "type": "Feature",
      "properties": {
        "norad_id": 34481,
        "name": "COSMOS 2251 DEB",
        "group": "cosmos-2251-debris",
        "lat": -12.78744510941952,
        "lon": -140.65215147742552,
        "alt_km": 738.4897368440643,
        "timestamp": "2025-12-22T11:33:20.834566+00:00",
        "meta_object_name": "COSMOS 2251 DEB",
        "meta_object_id": "1993-036UA",
        "meta_epoch": "2025-12-22T04:13:14.564928",
        "meta_mean_motion": 14.32582929,
        "meta_eccentricity": 0.0070377,
        "meta_inclination": 73.979,
        "meta_ra_of_asc_node": 36.1685,
        "meta_arg_of_pericenter": 208.7649,
        "meta_mean_anomaly": 209.0545,
        "meta_ephemeris_type": 0,
        "meta_classification_type": "U",
        "meta_norad_cat_id": 34481,
        "meta_element_set_no": 999,
        "meta_rev_at_epoch": 87584,
        "meta_bstar": 0.0005487,
        "meta_mean_motion_dot": 1.505e-05,
        "meta_mean_motion_ddot": 0,
        "tle_line1": "1 34481U 93036UA  25356.17586302  .00001505  00000+0  54870-3 0  9991",
        "tle_line2": "2 34481  73.9790  36.1685 0070377 208.7649 209.0545 14.32582929875848"
      },
      "geometry": {
        "type": "Point",
        "coordinates": [
          -140.65215147742552,
          -12.78744510941952
        ]
      }
    },
    {
      "type": "Feature",
      "properties": {
        "norad_id": 34482,
        "name": "COSMOS 2251 DEB",
        "group": "cosmos-2251-debris",
        "lat": -28.358781787842695,
        "lon": 33.61621838384525,
        "alt_km": 649.8793231145419,
        "timestamp": "2025-12-22T11:33:20.834576+00:00",
        "meta_object_name": "COSMOS 2251 DEB",
        "meta_object_id": "1993-036UB",
        "meta_epoch": "2025-12-22T01:30:43.351200",
        "meta_mean_motion": 14.69348429,
        "meta_eccentricity": 0.0044456,
        "meta_inclination": 74.0354,
        "meta_ra_of_asc_node": 205.5376,
        "meta_arg_of_pericenter": 263.8422,
        "meta_mean_anomaly": 253.3149,
        "meta_ephemeris_type": 0,
        "meta_classification_type": "U",
        "meta_norad_cat_id": 34482,
        "meta_element_set_no": 999,
        "meta_rev_at_epoch": 88324,
        "meta_bstar": 0.0016777,
        "meta_mean_motion_dot": 0.00010047,
        "meta_mean_motion_ddot": 0,
        "tle_line1": "1 34482U 93036UB  25356.06300175  .00010047  00000+0  16777-2 0  9996",
        "tle_line2": "2 34482  74.0354 205.5376 0044456 263.8422 253.3149 14.69348429883246"
      },
      "geometry": {
        "type": "Point",
        "coordinates": [
          33.61621838384525,
          -28.358781787842695
        ]
      }
    },
    {
      "type": "Feature",
      "properties": {
        "norad_id": 34544,
        "name": "COSMOS 2251 DEB",
        "group": "cosmos-2251-debris",
        "lat": 37.56201478380692,
        "lon": -158.92061689626019,
        "alt_km": 1336.249886546394,
        "timestamp": "2025-12-22T11:33:20.834586+00:00",
        "meta_object_name": "COSMOS 2251 DEB",
        "meta_object_id": "1993-036UE",
        "meta_epoch": "2025-12-21T21:30:37.256256",
        "meta_mean_motion": 13.54670498,
        "meta_eccentricity": 0.0383691,
        "meta_inclination": 73.9139,
        "meta_ra_of_asc_node": 189.2056,
        "meta_arg_of_pericenter": 215.9783,
        "meta_mean_anomaly": 210.8549,
        "meta_ephemeris_type": 0,
        "meta_classification_type": "U",
        "meta_norad_cat_id": 34544,
        "meta_element_set_no": 999,
        "meta_rev_at_epoch": 83006,
        "meta_bstar": 0.00039408,
        "meta_mean_motion_dot": 4.09e-06,
        "meta_mean_motion_ddot": 0,
        "tle_line1": "1 34544U 93036UE  25355.89626454  .00000409  00000+0  39408-3 0  9994",
        "tle_line2": "2 34544  73.9139 189.2056 0383691 215.9783 210.8549 13.54670498830063"
      },
      "geometry": {
        "type": "Point",
        "coordinates": [
          -158.92061689626019,
          37.56201478380692
        ]
      }
    },
    {
      "type": "Feature",
      "properties": {
        "norad_id": 34546,
        "name": "COSMOS 2251 DEB",
        "group": "cosmos-2251-debris",
        "lat": -65.1903276864114,
        "lon": -167.25699009274751,
        "alt_km": 732.2278090116433,
        "timestamp": "2025-12-22T11:33:20.834596+00:00",
        "meta_object_name": "COSMOS 2251 DEB",
        "meta_object_id": "1993-036UG",
        "meta_epoch": "2025-12-21T19:49:27.452352",
        "meta_mean_motion": 14.45445236,
        "meta_eccentricity": 0.0022038,
        "meta_inclination": 74.0297,
        "meta_ra_of_asc_node": 232.2437,
        "meta_arg_of_pericenter": 305.0419,
        "meta_mean_anomaly": 174.8231,
        "meta_ephemeris_type": 0,
        "meta_classification_type": "U",
        "meta_norad_cat_id": 34546,
        "meta_element_set_no": 999,
        "meta_rev_at_epoch": 88157,
        "meta_bstar": 0.00040952,
        "meta_mean_motion_dot": 1.42e-05,
        "meta_mean_motion_ddot": 0,
        "tle_line1": "1 34546U 93036UG  25355.82601218  .00001420  00000+0  40952-3 0  9990",
        "tle_line2": "2 34546  74.0297 232.2437 0022038 305.0419 174.8231 14.45445236881576"
      },
      "geometry": {
        "type": "Point",
        "coordinates": [
          -167.25699009274751,
          -65.1903276864114
        ]
      }
    },
    {
      "type": "Feature",
      "properties": {
        "norad_id": 34547,
        "name": "COSMOS 2251 DEB",
        "group": "cosmos-2251-debris",
        "lat": -14.951990511626073,
        "lon": 77.37357676208164,
        "alt_km": 668.8675338585317,
        "timestamp": "2025-12-22T11:33:20.834606+00:00",
        "meta_object_name": "COSMOS 2251 DEB",
        "meta_object_id": "1993-036UH",
        "meta_epoch": "2025-12-21T06:16:36.725088",
        "meta_mean_motion": 14.72512483,
        "meta_eccentricity": 0.00163934,
        "meta_inclination": 74.0317,
        "meta_ra_of_asc_node": 84.1334,
        "meta_arg_of_pericenter": 162.7845,
        "meta_mean_anomaly": 197.3887,
        "meta_ephemeris_type": 0,
        "meta_classification_type": "U",
        "meta_norad_cat_id": 34547,
        "meta_element_set_no": 999,
        "meta_rev_at_epoch": 88647,
        "meta_bstar": 0.00122774,
        "meta_mean_motion_dot": 7.792e-05,
        "meta_mean_motion_ddot": 0,
        "tle_line1": "1 34547U 93036UH  25355.26153617  .00007792  00000+0  12277-2 0  9990",
        "tle_line2": "2 34547  74.0317  84.1334 0016393 162.7845 197.3887 14.72512483886478"
      },
      "geometry": {
        "type": "Point",
        "coordinates": [
          77.37357676208164,
          -14.951990511626073
        ]
      }
    },
    {
      "type": "Feature",
      "properties": {
        "norad_id": 34553,
        "name": "COSMOS 2251 DEB",
        "group": "cosmos-2251-debris",
        "lat": 73.6440788856044,
        "lon": -109.17973046399585,
        "alt_km": 705.8245246907927,
        "timestamp": "2025-12-22T11:33:20.834617+00:00",
        "meta_object_name": "COSMOS 2251 DEB",
        "meta_object_id": "1993-036UP",
        "meta_epoch": "2025-12-21T12:14:40.588800",
        "meta_mean_motion": 14.57796029,
        "meta_eccentricity": 0.00191028,
        "meta_inclination": 74.0239,
        "meta_ra_of_asc_node": 175.2044,
        "meta_arg_of_pericenter": 251.8858,
        "meta_mean_anomaly": 139.3143,
        "meta_ephemeris_type": 0,
        "meta_classification_type": "U",
        "meta_norad_cat_id": 34553,
        "meta_element_set_no": 999,
        "meta_rev_at_epoch": 88224,
        "meta_bstar": 0.0008261884,
        "meta_mean_motion_dot": 3.761e-05,
        "meta_mean_motion_ddot": 0,
        "tle_line1": "1 34553U 93036UP  25355.51019200  .00003761  00000+0  82619-3 0  9994",
        "tle_line2": "2 34553  74.0239 175.2044 0019102 251.8858 139.3143 14.57796029882248"
      },
      "geometry": {
        "type": "Point",
        "coordinates": [
          -109.17973046399585,
          73.6440788856044
        ]
      }
    },
    {
      "type": "Feature",
      "properties": {
        "norad_id": 34554,
        "name": "COSMOS 2251 DEB",
        "group": "cosmos-2251-debris",
        "lat": -36.26102671568915,
        "lon": 113.17363216209762,
        "alt_km": 780.4070443258724,
        "timestamp": "2025-12-22T11:33:20.834627+00:00",
        "meta_object_name": "COSMOS 2251 DEB",
        "meta_object_id": "1993-036UQ",
        "meta_epoch": "2025-12-20T05:48:54.109152",
        "meta_mean_motion": 14.37952739,
        "meta_eccentricity": 0.002333,
        "meta_inclination": 74.0392,
        "meta_ra_of_asc_node": 285.1768,
        "meta_arg_of_pericenter": 346.0878,
        "meta_mean_anomaly": 165.1635,
        "meta_ephemeris_type": 0,
        "meta_classification_type": "U",
        "meta_norad_cat_id": 34554,
        "meta_element_set_no": 999,
        "meta_rev_at_epoch": 87863,
        "meta_bstar": 0.00024183,
        "meta_mean_motion_dot": 7.07e-06,
        "meta_mean_motion_ddot": 0,
        "tle_line1": "1 34554U 93036UQ  25354.24229293  .00000707  00000+0  24183-3 0  9998",
        "tle_line2": "2 34554  74.0392 285.1768 0023330 346.0878 165.1635 14.37952739878631"
      },
      "geometry": {
        "type": "Point",
        "coordinates": [
          113.17363216209762,
          -36.26102671568915
        ]
      }
    }
  ]
}